{"spkid": "50602046", "covariance": {"elements": [{"label": "e", "name": "e", "sigma": 8.15128435280882e-08, "units": null, "title": "eccentricity", "value": ".5476719428359234"}, {"label": "q", "name": "q", "sigma": 1.59460636791342e-07, "units": "au", "title": "perihelion distance", "value": ".9708212949468905"}, {"label": "tp", "name": "tp", "sigma": 2.64313396631015e-05, "units": "TDB", "title": "time of perihelion passage", "value": "2456071.150371974277"}, {"label": "node", "units": "deg", "value": "33.03204681011964", "title": "longitude of the ascending node", "name": "om", "sigma": 2.23009796165475e-05}, {"label": "peri", "value": "220.3068267285078", "title": "argument of perihelion", "units": "deg", "sigma": 3.30053019451788e-05, "name": "w"}, {"title": "inclination", "value": "13.54571428722445", "units": "deg", "sigma": 1.3474038024502e-05, "name": "i", "label": "i"}], "data": [["6.644343660034585E-15", "-1.259865080462802E-14", "9.998755777567477E-13", "-3.166231089519622E-13", "2.115090204967824E-12", "2.391138593023807E-13"], ["-1.259865080462802E-14", "2.542769468590017E-14", "-1.234304219152844E-12", "9.529269534235597E-13", "-3.7646100993102E-12", "-3.044892577293219E-13"], ["9.998755777567477E-13", "-1.234304219152844E-12", "6.986157163862425E-10", "2.400159337817573E-10", "5.498341538114358E-10", "1.164758230892416E-10"], ["-3.166231089519622E-13", "9.529269534235597E-13", "2.400159337817573E-10", "4.973336918576657E-10", "-2.996590565032672E-10", "-1.334975278523149E-10"], ["2.115090204967824E-12", "-3.7646100993102E-12", "5.498341538114358E-10", "-2.996590565032672E-10", "1.089349956492425E-9", "2.687516919156222E-10"], ["2.391138593023807E-13", "-3.044892577293219E-13", "1.164758230892416E-10", "-1.334975278523149E-10", "2.687516919156222E-10", "1.815497006857253E-10"]], "labels": ["e", "q", "tp", "node", "peri", "i"], "epoch": "2456320.5"}, "elements": [{"label": "e", "units": null, "title": "eccentricity", "value": ".547073258925151", "sigma": "8.0208E-8", "name": "e"}, {"units": "au", "title": "semi-major axis", "value": "2.146653639094033", "sigma": "9.7179E-8", "name": "a", "label": "a"}, {"name": "q", "sigma": "1.5585E-7", "value": ".9722768369713256", "title": "perihelion distance", "units": "au", "label": "q"}, {"sigma": "1.3443E-5", "name": "i", "title": "inclination; angle with respect to x-y ecliptic plane", "value": "13.51470593353205", "units": "deg", "label": "i"}, {"label": "node", "name": "om", "sigma": "2.2284E-5", "units": "deg", "title": "longitude of the ascending node", "value": "32.81768092754656"}, {"name": "w", "sigma": "3.3332E-5", "title": "argument of perihelion", "value": "220.5011841345846", "units": "deg", "label": "peri"}, {"label": "M", "sigma": ".00011679", "name": "ma", "units": "deg", "title": "mean anomaly", "value": "166.2440368652765"}, {"label": "tp", "sigma": ".00033669", "name": "tp", "units": "TDB", "title": "time of perihelion passage", "value": "2460670.000513534819"}, {"units": "d", "value": "1148.791973105384", "title": "sidereal orbital period", "name": "per", "sigma": "7.8009E-5", "label": "period"}, {"label": "n", "name": "n", "sigma": "2.128E-8", "title": "mean motion", "value": ".3133726631348734", "units": "deg/d"}, {"sigma": "1.5034E-7", "name": "ad", "value": "3.321030441216741", "title": "aphelion distance", "units": "au", "label": "Q"}], "epoch": "2461200.5"}